COMMENT,ORIGINATOR,NORAD_CAT_ID,OBJECT_NAME,OBJECT_TYPE,CLASSIFICATION_TYPE,INTLDES,EPOCH,EPOCH_MICROSECONDS,MEAN_MOTION,ECCENTRICITY,INCLINATION,RA_OF_ASC_NODE,ARG_OF_PERICENTER,MEAN_ANOMALY,EPHEMERIS_TYPE,ELEMENT_SET_NO,REV_AT_EPOCH,BSTAR,MEAN_MOTION_DOT,MEAN_MOTION_DDOT,FILE,TLE_LINE0,TLE_LINE1,TLE_LINE2,OBJECT_ID,OBJECT_NUMBER,SEMIMAJOR_AXIS,PERIOD,APOGEE,PERIGEE,DECAYED
"GENERATED VIA SPACETRACK.ORG API","18 SPCS","56232","FENGYUN 3G","PAYLOAD","U","23055A","2023-08-05 19:37:05","252160","15.52217232","0.0005566","49.9997","341.6336","281.6312","78.403","0","999","1736","0.00065313","0.00040161","0","3972590","0 FENGYUN 3G","1 56232U 23055A   23217.81742190  .00040161  00000-0  65313-3 0  9993","2 56232  49.9997 341.6336 0005566 281.6312  78.4030 15.52217232 17367","2023-055A","56232","6788.391","92.771","414.034","406.477","0"
"GENERATED VIA SPACETRACK.ORG API","18 SPCS","56232","FENGYUN 3G","PAYLOAD","U","23055A","2023-08-06 01:47:53","50848","15.52238232","0.0005574","49.9998","340.3078","282.8043","77.2301","0","999","1740","0.00064338","0.00039582","0","3972869","0 FENGYUN 3G","1 56232U 23055A   23218.07491957  .00039582  00000-0  64338-3 0  9995","2 56232  49.9998 340.3078 0005574 282.8043  77.2301 15.52238232 17406","2023-055A","56232","6788.330","92.769","413.978","406.411","0"
"GENERATED VIA SPACETRACK.ORG API","18 SPCS","56232","FENGYUN 3G","PAYLOAD","U","23055A","2023-08-06 09:31:22","523808","15.52253107","0.0005572","49.9997","338.6507","284.4352","75.5996","0","999","1745","0.00047636","0.00029162","0","3973216","0 FENGYUN 3G","1 56232U 23055A   23218.39678847  .00029162  00000-0  47636-3 0  9990","2 56232  49.9997 338.6507 0005572 284.4352  75.5996 15.52253107 17455","2023-055A","56232","6788.286","92.768","413.934","406.369","0"
"GENERATED VIA SPACETRACK.ORG API","18 SPCS","56232","FENGYUN 3G","PAYLOAD","U","23055A","2023-08-06 20:20:15","170784","15.52280375","0.0005579","49.9996","336.3302","286.5156","73.5198","0","999","1752","0.00045906","0.00028111","0","3973558","0 FENGYUN 3G","1 56232U 23055A   23218.84739781  .00028111  00000-0  45906-3 0  9996","2 56232  49.9996 336.3302 0005579 286.5156  73.5198 15.52280375 17521","2023-055A","56232","6788.207","92.767","413.859","406.285","0"
"GENERATED VIA SPACETRACK.ORG API","18 SPCS","56232","FENGYUN 3G","PAYLOAD","U","23055A","2023-08-07 04:03:43","835904","15.52297732","0.0005579","49.9995","334.6729","288.1534","71.8825","0","999","1757","0.0004467","0.00027356","0","3973848","0 FENGYUN 3G","1 56232U 23055A   23219.16925736  .00027356  00000-0  44670-3 0  9996","2 56232  49.9995 334.6729 0005579 288.1534  71.8825 15.52297732 17570","2023-055A","56232","6788.156","92.766","413.808","406.234","0"
"GENERATED VIA SPACETRACK.ORG API","18 SPCS","56232","FENGYUN 3G","PAYLOAD","U","23055A","2023-08-07 11:47:12","237504","15.52313623","0.0005574","49.9993","333.0163","289.5512","70.4853","0","999","1762","0.00043453","0.00026611","0","3974124","0 FENGYUN 3G","1 56232U 23055A   23219.49111386  .00026611  00000-0  43453-3 0  9991","2 56232  49.9993 333.0163 0005574 289.5512  70.4853 15.52313623 17629","2023-055A","56232","6788.110","92.765","413.759","406.191","0"
"GENERATED VIA SPACETRACK.ORG API","18 SPCS","56232","FENGYUN 3G","PAYLOAD","U","23055A","2023-08-07 19:30:40","269312","15.52334025","0.0005602","49.9991","331.3587","291.1446","68.8922","0","999","1767","0.00048331","0.00029684","0","3974458","0 FENGYUN 3G","1 56232U 23055A   23219.81296608  .00029684  00000-0  48331-3 0  9991","2 56232  49.9991 331.3587 0005602 291.1446  68.8922 15.52334025 17677","2023-055A","56232","6788.050","92.764","413.718","406.113","0"
"GENERATED VIA SPACETRACK.ORG API","18 SPCS","56232","FENGYUN 3G","PAYLOAD","U","23055A","2023-08-08 04:46:49","431936","15.52360475","0.0005595","49.9991","329.3693","292.3665","67.6709","0","999","1773","0.00055947","0.00034489","0","3974676","0 FENGYUN 3G","1 56232U 23055A   23220.19918324  .00034489  00000-0  55947-3 0  9990","2 56232  49.9991 329.3693 0005595 292.3665  67.6709 15.52360475 17734","2023-055A","56232","6787.973","92.762","413.636","406.040","0"
"GENERATED VIA SPACETRACK.ORG API","18 SPCS","56232","FENGYUN 3G","PAYLOAD","U","23055A","2023-08-08 12:30:16","693056","15.52378567","0.0005607","49.9991","327.7125","294.0519","65.9861","0","999","1778","0.00052631","0.0003243","0","3975027","0 FENGYUN 3G","1 56232U 23055A   23220.52102654  .00032430  00000-0  52631-3 0  9999","2 56232  49.9991 327.7125 0005607 294.0519  65.9861 15.52378567 17783","2023-055A","56232","6787.921","92.761","413.592","405.980","0"
"GENERATED VIA SPACETRACK.ORG API","18 SPCS","56232","FENGYUN 3G","PAYLOAD","U","23055A","2023-08-08 17:08:20","826816","15.52392737","0.0005608","49.9989","326.7169","294.6379","65.4004","0","999","1781","0.00054926","0.00033889","0","3975345","0 FENGYUN 3G","1 56232U 23055A   23220.71412994  .00033889  00000-0  54926-3 0  9999","2 56232  49.9989 326.7169 0005608 294.6379  65.4004 15.52392737 17811","2023-055A","56232","6787.879","92.760","413.551","405.938","0"
"GENERATED VIA SPACETRACK.ORG API","18 SPCS","56232","FENGYUN 3G","PAYLOAD","U","23055A","2023-08-09 02:24:28","746144","15.52417664","0.0005629","49.999","324.7278","296.4217","63.6172","0","999","1787","0.0005456","0.0003369","0","3975650","0 FENGYUN 3G","1 56232U 23055A   23221.10033271  .00033690  00000-0  54560-3 0  9994","2 56232  49.9990 324.7278 0005629 296.4217  63.6172 15.52417664 17875","2023-055A","56232","6787.807","92.759","413.492","405.851","0"
"GENERATED VIA SPACETRACK.ORG API","18 SPCS","56232","FENGYUN 3G","PAYLOAD","U","23055A","2023-08-09 10:07:54","930720","15.52436856","0.0005633","49.9991","323.0705","297.6948","62.3447","0","999","1792","0.00050437","0.0003112","0","3975970","0 FENGYUN 3G","1 56232U 23055A   23221.42216355  .00031120  00000-0  50437-3 0  9990","2 56232  49.9991 323.0705 0005633 297.6948  62.3447 15.52436856 17923","2023-055A","56232","6787.751","92.757","413.439","405.792","0"
"GENERATED VIA SPACETRACK.ORG API","18 SPCS","56232","FENGYUN 3G","PAYLOAD","U","23055A","2023-08-09 17:51:20","796480","15.52456461","0.0005659","49.9992","321.4136","299.6546","60.3857","0","999","1797","0.00049829","0.0003076","0","3976266","0 FENGYUN 3G","1 56232U 23055A   23221.74399070  .00030760  00000-0  49829-3 0  9993","2 56232  49.9992 321.4136 0005659 299.6546  60.3857 15.52456461 17970","2023-055A","56232","6787.693","92.756","413.400","405.717","0"
"GENERATED VIA SPACETRACK.ORG API","18 SPCS","56232","FENGYUN 3G","PAYLOAD","U","23055A","2023-08-10 03:07:27","323904","15.52480545","0.0005635","49.9992","319.4239","301.1233","58.9181","0","999","1803","0.00049785","0.00030759","0","3976536","0 FENGYUN 3G","1 56232U 23055A   23222.13017736  .00030759  00000-0  49785-3 0  9992","2 56232  49.9992 319.4239 0005635 301.1233  58.9181 15.52480545 18038","2023-055A","56232","6787.623","92.755","413.313","405.663","0"
"GENERATED VIA SPACETRACK.ORG API","18 SPCS","56232","FENGYUN 3G","PAYLOAD","U","23055A","2023-08-10 10:50:52","375776","15.52499677","0.0005626","49.9992","317.7667","302.8252","57.2173","0","999","1808","0.00047379","0.00029265","0","3976855","0 FENGYUN 3G","1 56232U 23055A   23222.45199509  .00029265  00000-0  47379-3 0  9993","2 56232  49.9992 317.7667 0005626 302.8252  57.2173 15.52499677 18087","2023-055A","56232","6787.568","92.754","413.251","405.614","0"
"GENERATED VIA SPACETRACK.ORG API","18 SPCS","56232","FENGYUN 3G","PAYLOAD","U","23055A","2023-08-10 18:34:17","87232","15.52519404","0.0005654","49.999","316.109","304.5051","55.5382","0","999","1813","0.0004676","0.00028896","0","3977184","0 FENGYUN 3G","1 56232U 23055A   23222.77380888  .00028896  00000-0  46760-3 0  9992","2 56232  49.9990 316.1090 0005654 304.5051  55.5382 15.52519404 18135","2023-055A","56232","6787.510","92.752","413.213","405.537","0"
"GENERATED VIA SPACETRACK.ORG API","18 SPCS","56232","FENGYUN 3G","PAYLOAD","U","23055A","2023-08-11 02:17:41","447040","15.52538307","0.0005632","49.999","314.4504","305.8602","54.1842","0","999","1818","0.00046717","0.00028889","0","3977449","0 FENGYUN 3G","1 56232U 23055A   23223.09561860  .00028889  00000-0  46717-3 0  9993","2 56232  49.9990 314.4504 0005632 305.8602  54.1842 15.52538307 18182","2023-055A","56232","6787.455","92.751","413.143","405.497","0"
"GENERATED VIA SPACETRACK.ORG API","18 SPCS","56232","FENGYUN 3G","PAYLOAD","U","23055A","2023-08-11 10:01:05","495808","15.52555949","0.0005622","49.9989","312.7936","307.2342","52.8112","0","999","1823","0.00044255","0.00027354","0","3977776","0 FENGYUN 3G","1 56232U 23055A   23223.41742472  .00027354  00000-0  44255-3 0  9990","2 56232  49.9989 312.7936 0005622 307.2342  52.8112 15.52555949 18238","2023-055A","56232","6787.404","92.750","413.084","405.453","0"
"GENERATED VIA SPACETRACK.ORG API","18 SPCS","56232","FENGYUN 3G","PAYLOAD","U","23055A","2023-08-11 17:44:29","229216","15.52573793","0.0005664","49.9988","311.1359","308.7554","51.2907","0","999","1828","0.00043788","0.00027077","0","3978061","0 FENGYUN 3G","1 56232U 23055A   23223.73922719  .00027077  00000-0  43788-3 0  9991","2 56232  49.9988 311.1359 0005664 308.7554  51.2907 15.52573793 18283","2023-055A","56232","6787.351","92.749","413.061","405.372","0"
"GENERATED VIA SPACETRACK.ORG API","18 SPCS","56232","FENGYUN 3G","PAYLOAD","U","23055A","2023-08-12 01:27:52","595424","15.52593683","0.0005649","49.9988","309.4777","309.8492","50.1978","0","999","1833","0.00046859","0.00029037","0","3978309","0 FENGYUN 3G","1 56232U 23055A   23224.06102541  .00029037  00000-0  46859-3 0  9991","2 56232  49.9988 309.4777 0005649 309.8492  50.1978 15.52593683 18335","2023-055A","56232","6787.294","92.748","412.993","405.324","0"
